{"fetched_at":"2026-07-12T17:32:25.735Z","source":"https://celestrak.org/NORAD/elements/gp.php?GROUP=planet&FORMAT=JSON","constellation":"superdove","records":[{"OBJECT_NAME":"FLOCK 4G-17","OBJECT_ID":"2025-009CA","EPOCH":"2026-07-11T19:01:41.869344","CLASSIFICATION_TYPE":"U","MEAN_MOTION":15.30038478,"ECCENTRICITY":0.00037337,"INCLINATION":97.3926,"RA_OF_ASC_NODE":274.0357,"ARG_OF_PERICENTER":227.7487,"MEAN_ANOMALY":132.3437,"EPHEMERIS_TYPE":0,"NORAD_CAT_ID":62681,"ELEMENT_SET_NO":999,"REV_AT_EPOCH":14031,"BSTAR":0.00022870087,"MEAN_MOTION_DOT":0.00006574,"MEAN_MOTION_DDOT":0},{"OBJECT_NAME":"FLOCK 4G-33","OBJECT_ID":"2025-009CE","EPOCH":"2026-07-12T04:07:53.720256","CLASSIFICATION_TYPE":"U","MEAN_MOTION":15.25776785,"ECCENTRICITY":0.00043654,"INCLINATION":97.3945,"RA_OF_ASC_NODE":272.7598,"ARG_OF_PERICENTER":226.8104,"MEAN_ANOMALY":133.277,"EPHEMERIS_TYPE":0,"NORAD_CAT_ID":62685,"ELEMENT_SET_NO":999,"REV_AT_EPOCH":8261,"BSTAR":0.00014187039,"MEAN_MOTION_DOT":0.00003551,"MEAN_MOTION_DDOT":0},{"OBJECT_NAME":"FLOCK 4H-1","OBJECT_ID":"2025-276AQ","EPOCH":"2026-07-12T10:45:38.799072","CLASSIFICATION_TYPE":"U","MEAN_MOTION":15.20830424,"ECCENTRICITY":0.0001762,"INCLINATION":97.4175,"RA_OF_ASC_NODE":266.7374,"ARG_OF_PERICENTER":181.8154,"MEAN_ANOMALY":178.3076,"EPHEMERIS_TYPE":0,"NORAD_CAT_ID":66704,"ELEMENT_SET_NO":999,"REV_AT_EPOCH":3427,"BSTAR":0.00016222,"MEAN_MOTION_DOT":0.0000351,"MEAN_MOTION_DDOT":0},{"OBJECT_NAME":"FLOCK 4H-2","OBJECT_ID":"2025-276AR","EPOCH":"2026-07-11T18:21:11.150496","CLASSIFICATION_TYPE":"U","MEAN_MOTION":15.21095519,"ECCENTRICITY":0.00012059,"INCLINATION":97.4171,"RA_OF_ASC_NODE":266.1117,"ARG_OF_PERICENTER":157.9538,"MEAN_ANOMALY":202.175,"EPHEMERIS_TYPE":0,"NORAD_CAT_ID":66705,"ELEMENT_SET_NO":999,"REV_AT_EPOCH":3417,"BSTAR":0.0001819335,"MEAN_MOTION_DOT":0.00003976,"MEAN_MOTION_DDOT":0},{"OBJECT_NAME":"FLOCK 4H-3","OBJECT_ID":"2025-276AS","EPOCH":"2026-07-12T03:32:40.682976","CLASSIFICATION_TYPE":"U","MEAN_MOTION":15.20220327,"ECCENTRICITY":0.00023769,"INCLINATION":97.4241,"RA_OF_ASC_NODE":266.4148,"ARG_OF_PERICENTER":266.6251,"MEAN_ANOMALY":93.4712,"EPHEMERIS_TYPE":0,"NORAD_CAT_ID":66706,"ELEMENT_SET_NO":999,"REV_AT_EPOCH":3421,"BSTAR":0.00019517404,"MEAN_MOTION_DOT":0.00004162,"MEAN_MOTION_DDOT":0},{"OBJECT_NAME":"FLOCK 4H-4","OBJECT_ID":"2025-276AT","EPOCH":"2026-07-12T04:24:01.014048","CLASSIFICATION_TYPE":"U","MEAN_MOTION":15.20011212,"ECCENTRICITY":0.00030557,"INCLINATION":97.4222,"RA_OF_ASC_NODE":266.3186,"ARG_OF_PERICENTER":271.2506,"MEAN_ANOMALY":88.8379,"EPHEMERIS_TYPE":0,"NORAD_CAT_ID":66707,"ELEMENT_SET_NO":999,"REV_AT_EPOCH":3421,"BSTAR":0.0001709356,"MEAN_MOTION_DOT":0.00003615,"MEAN_MOTION_DDOT":0},{"OBJECT_NAME":"FLOCK 4H-5","OBJECT_ID":"2025-276AU","EPOCH":"2026-07-12T12:09:23.009184","CLASSIFICATION_TYPE":"U","MEAN_MOTION":15.20882955,"ECCENTRICITY":0.0001127,"INCLINATION":97.4175,"RA_OF_ASC_NODE":266.8156,"ARG_OF_PERICENTER":131.0632,"MEAN_ANOMALY":229.0701,"EPHEMERIS_TYPE":0,"NORAD_CAT_ID":66708,"ELEMENT_SET_NO":999,"REV_AT_EPOCH":3428,"BSTAR":0.00016182,"MEAN_MOTION_DOT":0.00003507,"MEAN_MOTION_DDOT":0},{"OBJECT_NAME":"FLOCK 4H-6","OBJECT_ID":"2025-276AV","EPOCH":"2026-07-12T03:46:15.244896","CLASSIFICATION_TYPE":"U","MEAN_MOTION":15.20581087,"ECCENTRICITY":0.00021536,"INCLINATION":97.4224,"RA_OF_ASC_NODE":266.5142,"ARG_OF_PERICENTER":217.0482,"MEAN_ANOMALY":143.0605,"EPHEMERIS_TYPE":0,"NORAD_CAT_ID":66709,"ELEMENT_SET_NO":999,"REV_AT_EPOCH":3422,"BSTAR":0.00018905662,"MEAN_MOTION_DOT":0.00004073,"MEAN_MOTION_DDOT":0},{"OBJECT_NAME":"FLOCK 4H-7","OBJECT_ID":"2025-276AW","EPOCH":"2026-07-12T00:09:49.835520","CLASSIFICATION_TYPE":"U","MEAN_MOTION":15.20354217,"ECCENTRICITY":0.00008314,"INCLINATION":97.4184,"RA_OF_ASC_NODE":266.1265,"ARG_OF_PERICENTER":332.0965,"MEAN_ANOMALY":28.0226,"EPHEMERIS_TYPE":0,"NORAD_CAT_ID":66710,"ELEMENT_SET_NO":999,"REV_AT_EPOCH":3419,"BSTAR":0.00020230342,"MEAN_MOTION_DOT":0.00004334,"MEAN_MOTION_DDOT":0},{"OBJECT_NAME":"FLOCK 4H-8","OBJECT_ID":"2025-276AX","EPOCH":"2026-07-12T01:31:48.573696","CLASSIFICATION_TYPE":"U","MEAN_MOTION":15.20462835,"ECCENTRICITY":0.00018986,"INCLINATION":97.4222,"RA_OF_ASC_NODE":266.3301,"ARG_OF_PERICENTER":290.4488,"MEAN_ANOMALY":69.6543,"EPHEMERIS_TYPE":0,"NORAD_CAT_ID":66711,"ELEMENT_SET_NO":999,"REV_AT_EPOCH":3420,"BSTAR":0.00019039401,"MEAN_MOTION_DOT":0.00004088,"MEAN_MOTION_DDOT":0},{"OBJECT_NAME":"FLOCK 4H-9","OBJECT_ID":"2025-276AY","EPOCH":"2026-07-11T17:58:49.671264","CLASSIFICATION_TYPE":"U","MEAN_MOTION":15.20758372,"ECCENTRICITY":0.00021138,"INCLINATION":97.4212,"RA_OF_ASC_NODE":266.114,"ARG_OF_PERICENTER":230.013,"MEAN_ANOMALY":130.092,"EPHEMERIS_TYPE":0,"NORAD_CAT_ID":66712,"ELEMENT_SET_NO":999,"REV_AT_EPOCH":3416,"BSTAR":0.0001984122,"MEAN_MOTION_DOT":0.000043,"MEAN_MOTION_DDOT":0},{"OBJECT_NAME":"FLOCK 4H-10","OBJECT_ID":"2025-276AZ","EPOCH":"2026-07-12T08:45:48.909024","CLASSIFICATION_TYPE":"U","MEAN_MOTION":15.20139758,"ECCENTRICITY":0.0002894,"INCLINATION":97.4191,"RA_OF_ASC_NODE":266.4333,"ARG_OF_PERICENTER":271.3209,"MEAN_ANOMALY":88.7695,"EPHEMERIS_TYPE":0,"NORAD_CAT_ID":66713,"ELEMENT_SET_NO":999,"REV_AT_EPOCH":3424,"BSTAR":0.00018853,"MEAN_MOTION_DOT":0.00004009,"MEAN_MOTION_DDOT":0},{"OBJECT_NAME":"FLOCK 4H-11","OBJECT_ID":"2025-276BA","EPOCH":"2026-07-12T04:46:34.985856","CLASSIFICATION_TYPE":"U","MEAN_MOTION":15.23278261,"ECCENTRICITY":0.00013429,"INCLINATION":97.4197,"RA_OF_ASC_NODE":266.849,"ARG_OF_PERICENTER":261.5277,"MEAN_ANOMALY":98.5808,"EPHEMERIS_TYPE":0,"NORAD_CAT_ID":66714,"ELEMENT_SET_NO":999,"REV_AT_EPOCH":3425,"BSTAR":0.00033912749,"MEAN_MOTION_DOT":0.00007972,"MEAN_MOTION_DDOT":0},{"OBJECT_NAME":"FLOCK 4H-12","OBJECT_ID":"2025-276BB","EPOCH":"2026-07-12T06:18:15.310080","CLASSIFICATION_TYPE":"U","MEAN_MOTION":15.20791386,"ECCENTRICITY":0.0001564,"INCLINATION":97.4187,"RA_OF_ASC_NODE":266.5565,"ARG_OF_PERICENTER":190.0057,"MEAN_ANOMALY":170.1148,"EPHEMERIS_TYPE":0,"NORAD_CAT_ID":66715,"ELEMENT_SET_NO":999,"REV_AT_EPOCH":3455,"BSTAR":0.00018228,"MEAN_MOTION_DOT":0.00003948,"MEAN_MOTION_DDOT":0},{"OBJECT_NAME":"FLOCK 4H-13","OBJECT_ID":"2025-276BC","EPOCH":"2026-07-12T08:45:41.815584","CLASSIFICATION_TYPE":"U","MEAN_MOTION":15.2089182,"ECCENTRICITY":0.0001755,"INCLINATION":97.4218,"RA_OF_ASC_NODE":266.8293,"ARG_OF_PERICENTER":145.0068,"MEAN_ANOMALY":215.1283,"EPHEMERIS_TYPE":0,"NORAD_CAT_ID":66716,"ELEMENT_SET_NO":999,"REV_AT_EPOCH":3426,"BSTAR":0.00018853,"MEAN_MOTION_DOT":0.00004098,"MEAN_MOTION_DDOT":0},{"OBJECT_NAME":"FLOCK 4H-14","OBJECT_ID":"2025-276BD","EPOCH":"2026-07-12T03:05:48.579072","CLASSIFICATION_TYPE":"U","MEAN_MOTION":15.21340504,"ECCENTRICITY":0.00015864,"INCLINATION":97.4203,"RA_OF_ASC_NODE":266.642,"ARG_OF_PERICENTER":143.8982,"MEAN_ANOMALY":216.2362,"EPHEMERIS_TYPE":0,"NORAD_CAT_ID":66717,"ELEMENT_SET_NO":999,"REV_AT_EPOCH":3348,"BSTAR":0.00018345381,"MEAN_MOTION_DOT":0.00004039,"MEAN_MOTION_DDOT":0}]}
