FLOCK 4G-17             
1 62681U 25009CA  26192.79284571  .00006574  00000+0  22870-3 0  9995
2 62681  97.3926 274.0357 0003733 227.7487 132.3437 15.30038478140313
FLOCK 4G-33             
1 62685U 25009CE  26193.17214954  .00003551  00000+0  14187-3 0  9994
2 62685  97.3945 272.7598 0004365 226.8104 133.2770 15.25776785 82610
FLOCK 4H-1              
1 66704U 25276AQ  26193.44836573  .00003510  00000+0  16222-3 0  9990
2 66704  97.4175 266.7374 0001762 181.8154 178.3076 15.20830424 34274
FLOCK 4H-2              
1 66705U 25276AR  26192.76471239  .00003976  00000+0  18193-3 0  9994
2 66705  97.4171 266.1117 0001205 157.9538 202.1750 15.21095519 34175
FLOCK 4H-3              
1 66706U 25276AS  26193.14769309  .00004162  00000+0  19517-3 0  9995
2 66706  97.4241 266.4148 0002376 266.6251  93.4712 15.20220327 34211
FLOCK 4H-4              
1 66707U 25276AT  26193.18334507  .00003615  00000+0  17094-3 0  9998
2 66707  97.4222 266.3186 0003055 271.2506  88.8379 15.20011212 34210
FLOCK 4H-5              
1 66708U 25276AU  26193.50651631  .00003507  00000+0  16182-3 0  9992
2 66708  97.4175 266.8156 0001126 131.0632 229.0701 15.20882956 34286
FLOCK 4H-6              
1 66709U 25276AV  26193.15712089  .00004073  00000+0  18906-3 0  9994
2 66709  97.4224 266.5142 0002153 217.0482 143.0605 15.20581087 34226
FLOCK 4H-7              
1 66710U 25276AW  26193.00682680  .00004334  00000+0  20230-3 0  9996
2 66710  97.4184 266.1265 0000831 332.0965  28.0226 15.20354217 34190
FLOCK 4H-8              
1 66711U 25276AX  26193.06375664  .00004088  00000+0  19039-3 0  9995
2 66711  97.4222 266.3301 0001898 290.4488  69.6543 15.20462835 34209
FLOCK 4H-9              
1 66712U 25276AY  26192.74918601  .00004300  00000+0  19841-3 0  9992
2 66712  97.4212 266.1140 0002113 230.0130 130.0920 15.20758372 34164
FLOCK 4H-10             
1 66713U 25276AZ  26193.36514942  .00004009  00000+0  18853-3 0  9990
2 66713  97.4191 266.4333 0002894 271.3209  88.7695 15.20139758 34247
FLOCK 4H-11             
1 66714U 25276BA  26193.19901604  .00007972  00000+0  33913-3 0  9993
2 66714  97.4197 266.8490 0001342 261.5277  98.5808 15.23278261 34257
FLOCK 4H-12             
1 66715U 25276BB  26193.26267720  .00003948  00000+0  18228-3 0  9997
2 66715  97.4187 266.5565 0001564 190.0057 170.1148 15.20791386 34557
FLOCK 4H-13             
1 66716U 25276BC  26193.36506732  .00004098  00000+0  18853-3 0  9999
2 66716  97.4218 266.8293 0001755 145.0068 215.1283 15.20891820 34260
FLOCK 4H-14             
1 66717U 25276BD  26193.12903448  .00004039  00000+0  18345-3 0  9990
2 66717  97.4203 266.6420 0001586 143.8982 216.2362 15.21340504 33480
